1 53778U 22111F   24309.73684932  .00000089  00000+0  23696-4 0  9993
2 53778  53.2177 318.3290 0001610  92.4097 267.7079 15.08835973119662
STARLINK-4706           
1 53779U 22111G   24310.03727778  .00001186  00000+0  92622-4 0  9999
2 53779  53.2182 312.3690 0001506  92.7163 267.4001 15.08834911118963
STARLINK-4678           
1 53780U 22111H   24309.71344546 -.00000301  00000+0 -83563-6 0  9998
2 53780  53.2174 313.9016 0001578  93.0566 267.0607 15.08839754119728
STARLINK-4462           
1 53781U 22111J   24310.15869171  .00000437  00000+0  45542-4 0  9996
2 53781  53.2177 311.7067 0001636  88.7912 271.3268 15.08855438118980
STARLINK-4679           
1 53782U 22111K   24310.16607083  .00002624  00000+0  18291-3 0  9990
2 53782  53.2166 311.7495 0001465  87.3474 272.7685 15.08842845118988
STARLINK-4536           
1 53783U 22111L   24310.15132931  .00002501  00000+0  17510-3 0  9992
2 53783  53.2169 311.6600 0001475 109.0652 251.0500 15.08848943118981
STARLINK-4687           
1 53784U 22111M   24310.16238202  .00009600  00000+0  62023-3 0  9998
2 53784  53.2175 311.7292 0001754  87.5669 272.5524 15.08853780118984
STARLINK-4631           
1 53786U 22111P   24310.12374349  .00000412  00000+0  44013-4 0  9991
2 53786  53.2173 301.6295 0001618 106.2173 253.8997 15.08839296119122
STARLINK-4743           
1 53787U 22111Q   24309.74652137  .00011685  00000+0  75104-3 0  9990
2 53787  53.2166 313.3992 0001489  79.2197 280.8962 15.08841100119736
STARLINK-4666           
1 53789U 22111S   24309.73547544  .00011630  00000+0  74802-3 0  9990
2 53789  53.2164 313.3305 0001647  79.8557 280.2621 15.08819826119721
STARLINK-4734           
1 53790U 22111T   24309.75020817  .00020559  00000+0  13061-2 0  9992
2 53790  53.2168 313.4214 0001496  77.7288 282.3872 15.08837983119733
STARLINK-4739           
1 53792U 22111V   24309.72914114 -.00000623  00000+0 -21024-4 0  9995
2 53792  53.2173 313.9876 0001695  95.0221 265.0965 15.08833540119715
STARLINK-4728           
1 53793U 22111W   24310.00779042 -.00004570  00000+0 -26930-3 0  9993
2 53793  53.2177 312.1845 0001712  92.4555 267.6633 15.08829005118965
STARLINK-4730           
1 53794U 22111X   24309.74747985  .00011649  00000+0  74864-3 0  9996
2 53794  53.2166 313.4023 0001629  76.7937 283.3237 15.08845995119728
STARLINK-4742           
1 53795U 22111Y   24309.73178471  .00012834  00000+0  82299-3 0  9992
2 53795  53.2164 313.3062 0001335  78.5837 281.5305 15.08840382118924
STARLINK-4721           
1 53796U 22111Z   24309.66966690  .00072350  00000+0  30511-2 0  9991
2 53796  53.2033 288.6531 0005104  47.7946 312.3484 15.22665945120090
STARLINK-4723           
1 53797U 22111AA  24309.72073196  .00003059  00000+0  21019-3 0  9993
2 53797  53.2170 313.2390 0001738 103.6307 256.4878 15.08842540118929
STARLINK-4712           
1 53798U 22111AB  24309.72442383  .00019797  00000+0  12598-2 0  9999
2 53798  53.2167 313.2609 0001208  56.9156 303.1952 15.08801634119713
STARLINK-4710           
1 53799U 22111AC  24310.16426934  .00010671  00000+0  68746-3 0  9993
2 53799  53.2163 301.7546 0001444 114.7324 245.3818 15.08842627119102
STARLINK-4720           
1 53800U 22111AD  24309.68857506  .00011327  00000+0  72859-3 0  9993
2 53800  53.2165 303.7642 0001449  87.3006 272.8152 15.08840731119844
STARLINK-4715           
1 53801U 22111AE  24310.13383087  .00002379  00000+0  16748-3 0  9996
2 53801  53.2173 301.5706 0001584  88.1471 271.9703 15.08843748119108
STARLINK-4726           
1 53802U 22111AF  24310.14488849  .00004414  00000+0  29520-3 0  9994
2 53802  53.2169 301.6392 0001791  80.1418 279.9776 15.08843566119105
STARLINK-4727           
1 53803U 22111AG  24310.15916063  .00003134  00000+0  21484-3 0  9999
2 53803  53.2170 286.7500 0001613  90.6195 269.4982 15.08857163119317
STARLINK-4729           
1 53804U 22111AH  24310.13708553  .00002924  00000+0  20163-3 0  9990
2 53804  53.2157 296.5885 0001220  81.7576 278.3555 15.08852072119179
STARLINK-4763           
1 53805U 22111AJ  24309.24013078  .00000264  00000+0  34672-4 0  9998
2 53805  53.2165 290.9585 0001446  94.5275 265.5883 15.08841416119983
STARLINK-4768           
1 53806U 22111AK  24310.14074428  .00018236  00000+0  11605-2 0  9993
2 53806  53.2164 286.6296 0001592  80.6583 279.4589 15.08851928119317
STARLINK-4749           
1 53818U 22114A   24310.16129732  .00056216  00000+0  14037-2 0  9992
2 53818  53.2166 298.3050 0001873  51.1017 309.0156 15.39649653119007
STARLINK-4738           
1 53819U 22114B   24309.38313333 -.00001947  00000+0 -10432-3 0  9996
2 53819  53.2172 345.0628 0001756  84.3617 275.7575 15.08824352118819
STARLINK-4758           
1 53820U 22114C   24309.81373039  .00024511  00000+0  15529-2 0  9996
2 53820  53.2162 343.4785 0001669  74.6924 285.4252 15.08837145118872
STARLINK-4752           
1 53821U 22114D   24310.16009097  .00000456  00000+0  46737-4 0  9996
2 53821  53.2165 286.5133 0001466  96.0152 264.1007 15.08839619119169
STARLINK-4748           
1 53823U 22114F   24309.38912227  .00000408  00000+0  43747-4 0  9993
2 53823  53.2172 300.1480 0001365  77.5802 282.5342 15.08835241119445
STARLINK-4757           
1 53824U 22114G   24309.38785450  .00001008  00000+0  83152-4 0  9991
2 53824  53.2187 344.3924 0001583  91.3391 268.7782 15.08009867118736
STARLINK-4751           
1 53825U 22114H   24309.80635851  .00011015  00000+0  70941-3 0  9998
2 53825  53.2188 343.4345 0001629 118.2894 241.8263 15.08824357118873
STARLINK-4756           
1 53826U 22114J   24310.11913958  .00015305  00000+0  97771-3 0  9998
2 53826  53.2173 341.8281 0001650  74.2293 285.8881 15.08835851118388
STARLINK-4764           
1 53827U 22114K   24310.13019349  .00010286  00000+0  66337-3 0  9999
2 53827  53.2186 341.9022 0001804 101.2537 258.8658 15.08843237118389
STARLINK-4760           
1 53828U 22114L   24310.11545567  .00010752  00000+0  69258-3 0  9997
2 53828  53.2179 341.8047 0001750  81.2681 278.8509 15.08842900118388
STARLINK-4759           
1 53829U 22114M   24309.79530518  .00019515  00000+0  12411-2 0  9994
2 53829  53.2179 343.3651 0001435  79.2065 280.9088 15.08832995118873
STARLINK-4761           
1 53830U 22114N   24309.37944048  .00023260  00000+0  14752-2 0  9999
2 53830  53.2167 345.0349 0001554  97.6359 262.4810 15.08828546118816
STARLINK-4649           
1 53831U 22114P   24309.79161781  .00004540  00000+0  30317-3 0  9997
2 53831  53.2181 343.3396 0001498  81.2821 278.8340 15.08838745118873
STARLINK-4747           
1 53832U 22114Q   24309.83575471  .00002452  00000+0  17211-3 0  9996
2 53832  53.2177 342.9063 0001814  86.5631 273.5569 15.08838641118885
STARLINK-4771           
1 53833U 22114R   24310.11272641  .00016393  00000+0  10455-2 0  9994
2 53833  53.2170 341.7886 0001862 105.0238 255.0960 15.08844955118382
STARLINK-4737           
1 53834U 22114S   24309.82838427  .00022550  00000+0  14306-2 0  9992
2 53834  53.2166 342.8606 0001317 110.0425 250.0709 15.08835507118883
STARLINK-4783           
1 53835U 22114T   24309.83944514  .00002737  00000+0  19006-3 0  9997
2 53835  53.2171 342.9247 0001811 101.0524 259.0671 15.08829345118881
STARLINK-4778           
1 53836U 22114U   24309.81095709  .00007346  00000+0  47898-3 0  9990
2 53836  53.2168 333.4719 0002234  80.2296 279.8948 15.08854637119016
STARLINK-4776           
1 53837U 22114V   24309.83206660 -.00000908  00000+0 -38936-4 0  9996
2 53837  53.2185 342.8837 0001810 103.0284 257.0910 15.08837196118344
STARLINK-4773           
1 53838U 22114W   24309.80728505  .00018339  00000+0  11674-2 0  9994
2 53838  53.2169 333.4545 0001518  99.1986 260.9177 15.08837498119016
STARLINK-4784           
1 53839U 22114X   24309.35097151  .00004859  00000+0  32318-3 0  9992
2 53839  53.2170 335.5819 0001680  77.4663 282.6517 15.08838463118940
STARLINK-4766           
1 53840U 22114Y   24309.79718964  .00013054  00000+0  83681-3 0  9990
2 53840  53.2169 333.3930 0001639  83.6742 276.4437 15.08838615119011
STARLINK-4750           
1 53841U 22114Z   24310.06856420  .00020989  00000+0  13324-2 0  9994
2 53841  53.2169 332.2419 0001687  81.9626 278.1557 15.08853436118511
STARLINK-4754           
1 53842U 22114AA  24309.45765902  .00027363  00000+0  17316-2 0  9998
2 53842  53.2167 334.8282 0001554 102.3875 257.7291 15.08820764118429
STARLINK-4769           
1 53843U 22114AB  24309.79991653  .00001963  00000+0  14143-3 0  9994
2 53843  53.2179 333.4079 0001616  90.1096 270.0081 15.08837588119013
STARLINK-4745           
1 53844U 22114AC  24309.78149191  .00015956  00000+0  10184-2 0  9993
2 53844  53.2175 333.2950 0001519  85.1300 274.9866 15.08837209118473
STARLINK-4753           
1 53845U 22114AD  24309.79254854  .00000040  00000+0  20587-4 0  9996
2 53845  53.2174 333.3833 0001765  87.1475 272.9719 15.08835218119016
STARLINK-4746           
1 53846U 22114AE  24309.77411898  .00012294  00000+0  78911-3 0  9995
2 53846  53.2163 333.2488 0001393 101.5362 258.5787 15.08842916119011
STARLINK-4777           
1 53847U 22114AF  24309.78517205 -.00000546  00000+0 -16194-4 0  9991
2 53847  53.2175 333.3179 0001569 102.9246 257.1921 15.08837351119016
STARLINK-4780           
1 53848U 22114AG  24309.76675047  .00001951  00000+0  14062-3 0  9999
2 53848  53.2166 333.1988 0001519  84.5234 275.5931 15.08839528119013
STARLINK-4770           
1 53849U 22114AH  24309.77779724  .00017309  00000+0  11044-2 0  9998
2 53849  53.2170 333.2703 0002604  84.9690 275.1599 15.08790604119018
STARLINK-4767           
1 53850U 22114AJ  24309.49071854 -.00002468  00000+0 -13694-3 0  9994
2 53850  53.2164 334.3242 0001328 103.0995 257.0145 15.08854068118971
STARLINK-4755           
1 53851U 22114AK  24309.77043485  .00020413  00000+0  12971-2 0  9999
2 53851  53.2172 333.2257 0001529  98.8054 261.3111 15.08834880118471
STARLINK-4797           
1 53852U 22114AL  24310.04875521  .00016107  00000+0  10276-2 0  9997
